{"type": "FeatureCollection", "features": [ {"type": "Feature", "properties": {"norad_id": 44622, "name": "GAOFEN-10R", "group": "resource", "lat": 62.541447460196935, "lon": 126.48946630067559, "alt_km": 612.0836863558179, "timestamp": "2025-12-09T05:43:20.385534+00:00", "meta": {"OBJECT_NAME": "GAOFEN-10R", "OBJECT_ID": "2019-066A", "EPOCH": "2025-12-08T21:06:09.069696", "MEAN_MOTION": 14.82772929, "ECCENTRICITY": 0.0008054, "INCLINATION": 98.0276, "RA_OF_ASC_NODE": 290.3705, "ARG_OF_PERICENTER": 52.6519, "MEAN_ANOMALY": 307.5427, "EPHEMERIS_TYPE": 0, "CLASSIFICATION_TYPE": "U", "NORAD_CAT_ID": 44622, "ELEMENT_SET_NO": 999, "REV_AT_EPOCH": 33417, "BSTAR": 0.00041336, "MEAN_MOTION_DOT": 3.289e-05, "MEAN_MOTION_DDOT": 0}, "tle": {"line1": "1 44622U 19066A   25342.87927164  .00003289  00000+0  41336-3 0  9991", "line2": "2 44622  98.0276 290.3705 0008054  52.6519 307.5427 14.82772929334170"}}, "geometry": {"type": "Point", "coordinates": [126.48946630067559, 62.541447460196935]}}, {"type": "Feature", "properties": {"norad_id": 44804, "name": "CARTOSAT-3", "group": "resource", "lat": -0.6149945838116624, "lon": -137.21491595204063, "alt_km": 509.8704884693034, "timestamp": "2025-12-09T05:43:20.385544+00:00", "meta": {"OBJECT_NAME": "CARTOSAT-3", "OBJECT_ID": "2019-081A", "EPOCH": "2025-12-08T19:26:51.989280", "MEAN_MOTION": 15.19316475, "ECCENTRICITY": 0.0014038, "INCLINATION": 97.4585, "RA_OF_ASC_NODE": 42.4429, "ARG_OF_PERICENTER": 98.9891, "MEAN_ANOMALY": 261.2934, "EPHEMERIS_TYPE": 0, "CLASSIFICATION_TYPE": "U", "NORAD_CAT_ID": 44804, "ELEMENT_SET_NO": 999, "REV_AT_EPOCH": 33456, "BSTAR": 0.00019679, "MEAN_MOTION_DOT": 4.097e-05, "MEAN_MOTION_DDOT": 0}, "tle": {"line1": "1 44804U 19081A   25342.81032395  .00004097  00000+0  19679-3 0  9990", "line2": "2 44804  97.4585  42.4429 0014038  98.9891 261.2934 15.19316475334565"}}, "geometry": {"type": "Point", "coordinates": [-137.21491595204063, -0.6149945838116624]}}, {"type": "Feature", "properties": {"norad_id": 44819, "name": "GAOFEN-12 01", "group": "resource", "lat": 49.40020663469768, "lon": -19.606830156967902, "alt_km": 623.5416743678579, "timestamp": "2025-12-09T05:43:20.385555+00:00", "meta": {"OBJECT_NAME": "GAOFEN-12 01", "OBJECT_ID": "2019-082A", "EPOCH": "2025-12-08T21:23:15.443808", "MEAN_MOTION": 14.8065122, "ECCENTRICITY": 0.0001193, "INCLINATION": 97.8127, "RA_OF_ASC_NODE": 349.2731, "ARG_OF_PERICENTER": 259.0738, "MEAN_ANOMALY": 101.034, "EPHEMERIS_TYPE": 0, "CLASSIFICATION_TYPE": "U", "NORAD_CAT_ID": 44819, "ELEMENT_SET_NO": 999, "REV_AT_EPOCH": 32593, "BSTAR": 0.0001406, "MEAN_MOTION_DOT": 1.029e-05, "MEAN_MOTION_DDOT": 0}, "tle": {"line1": "1 44819U 19082A   25342.89115097  .00001029  00000+0  14060-3 0  9997", "line2": "2 44819  97.8127 349.2731 0001193 259.0738 101.0340 14.80651220325939"}}, "geometry": {"type": "Point", "coordinates": [-19.606830156967902, 49.40020663469768]}}, {"type": "Feature", "properties": {"norad_id": 44873, "name": "CSG-1", "group": "resource", "lat": 37.420975920202494, "lon": -9.300815995318237, "alt_km": 619.2896686539116, "timestamp": "2025-12-09T05:43:20.385565+00:00", "meta": {"OBJECT_NAME": "CSG-1", "OBJECT_ID": "2019-092A", "EPOCH": "2025-12-08T19:21:43.562880", "MEAN_MOTION": 14.82156816, "ECCENTRICITY": 0.0001466, "INCLINATION": 97.8812, "RA_OF_ASC_NODE": 164.1901, "ARG_OF_PERICENTER": 85.899, "MEAN_ANOMALY": 274.2391, "EPHEMERIS_TYPE": 0, "CLASSIFICATION_TYPE": "U", "NORAD_CAT_ID": 44873, "ELEMENT_SET_NO": 999, "REV_AT_EPOCH": 32327, "BSTAR": 0.00016739, "MEAN_MOTION_DOT": 1.281e-05, "MEAN_MOTION_DDOT": 0}, "tle": {"line1": "1 44873U 19092A   25342.80675420  .00001281  00000+0  16739-3 0  9995", "line2": "2 44873  97.8812 164.1901 0001466  85.8990 274.2391 14.82156816323278"}}, "geometry": {"type": "Point", "coordinates": [-9.300815995318237, 37.420975920202494]}}, {"type": "Feature", "properties": {"norad_id": 46277, "name": "NEMO-HD", "group": "resource", "lat": -69.17142578345496, "lon": 61.84964802401239, "alt_km": 453.7013341304282, "timestamp": "2025-12-09T05:43:20.385575+00:00", "meta": {"OBJECT_NAME": "NEMO-HD", "OBJECT_ID": "2020-061F", "EPOCH": "2025-12-08T20:40:19.818336", "MEAN_MOTION": 15.40204626, "ECCENTRICITY": 0.000211, "INCLINATION": 97.2212, "RA_OF_ASC_NODE": 42.0088, "ARG_OF_PERICENTER": 61.0093, "MEAN_ANOMALY": 299.1364, "EPHEMERIS_TYPE": 0, "CLASSIFICATION_TYPE": "U", "NORAD_CAT_ID": 46277, "ELEMENT_SET_NO": 999, "REV_AT_EPOCH": 29264, "BSTAR": 0.00037194, "MEAN_MOTION_DOT": 0.00014869, "MEAN_MOTION_DDOT": 0}, "tle": {"line1": "1 46277U 20061F   25342.86134049  .00014869  00000+0  37194-3 0  9990", "line2": "2 46277  97.2212  42.0088 0002110  61.0093 299.1364 15.40204626292643"}}, "geometry": {"type": "Point", "coordinates": [61.84964802401239, -69.17142578345496]}}, {"type": "Feature", "properties": {"norad_id": 46984, "name": "SENTINEL-6A", "group": "resource", "lat": 22.75050567561712, "lon": -21.165545625973078, "alt_km": 1338.7619117935064, "timestamp": "2025-12-09T05:43:20.385585+00:00", "meta": {"OBJECT_NAME": "SENTINEL-6A", "OBJECT_ID": "2020-086A", "EPOCH": "2025-12-08T19:32:48.276096", "MEAN_MOTION": 12.80930444, "ECCENTRICITY": 0.0007739, "INCLINATION": 66.0392, "RA_OF_ASC_NODE": 170.4614, "ARG_OF_PERICENTER": 269.2159, "MEAN_ANOMALY": 90.797, "EPHEMERIS_TYPE": 0, "CLASSIFICATION_TYPE": "U", "NORAD_CAT_ID": 46984, "ELEMENT_SET_NO": 999, "REV_AT_EPOCH": 23594, "BSTAR": 4.3626e-05, "MEAN_MOTION_DOT": -5.1e-07, "MEAN_MOTION_DDOT": 0}, "tle": {"line1": "1 46984U 20086A   25342.81444764 -.00000051  00000+0  43626-4 0  9992", "line2": "2 46984  66.0392 170.4614 0007739 269.2159  90.7970 12.80930444235942"}}, "geometry": {"type": "Point", "coordinates": [-21.165545625973078, 22.75050567561712]}}, {"type": "Feature", "properties": {"norad_id": 48079, "name": "GAOFEN-12 02", "group": "resource", "lat": 60.04303664162066, "lon": -36.83416030049139, "alt_km": 619.7194572200124, "timestamp": "2025-12-09T05:43:20.385596+00:00", "meta": {"OBJECT_NAME": "GAOFEN-12 02", "OBJECT_ID": "2021-026A", "EPOCH": "2025-12-08T21:20:18.017088", "MEAN_MOTION": 14.80668873, "ECCENTRICITY": 0.0003455, "INCLINATION": 97.985, "RA_OF_ASC_NODE": 336.9142, "ARG_OF_PERICENTER": 108.489, "MEAN_ANOMALY": 251.6698, "EPHEMERIS_TYPE": 0, "CLASSIFICATION_TYPE": "U", "NORAD_CAT_ID": 48079, "ELEMENT_SET_NO": 999, "REV_AT_EPOCH": 25360, "BSTAR": 0.00014646, "MEAN_MOTION_DOT": 1.073e-05, "MEAN_MOTION_DDOT": 0}, "tle": {"line1": "1 48079U 21026A   25342.88909742  .00001073  00000+0  14646-3 0  9996", "line2": "2 48079  97.9850 336.9142 0003455 108.4890 251.6698 14.80668873253607"}}, "geometry": {"type": "Point", "coordinates": [-36.83416030049139, 60.04303664162066]}}, {"type": "Feature", "properties": {"norad_id": 48268, "name": "PLEIADES NEO 3", "group": "resource", "lat": 63.31326761264338, "lon": -108.24446160986616, "alt_km": 617.006591572348, "timestamp": "2025-12-09T05:43:20.385606+00:00", "meta": {"OBJECT_NAME": "PLEIADES NEO 3", "OBJECT_ID": "2021-034A", "EPOCH": "2025-12-08T17:51:26.688096", "MEAN_MOTION": 14.81674889, "ECCENTRICITY": 0.0001321, "INCLINATION": 97.8951, "RA_OF_ASC_NODE": 55.2426, "ARG_OF_PERICENTER": 96.866, "MEAN_ANOMALY": 263.2703, "EPHEMERIS_TYPE": 0, "CLASSIFICATION_TYPE": "U", "NORAD_CAT_ID": 48268, "ELEMENT_SET_NO": 999, "REV_AT_EPOCH": 24945, "BSTAR": 2.6373e-05, "MEAN_MOTION_DOT": 1.55e-06, "MEAN_MOTION_DDOT": 0}, "tle": {"line1": "1 48268U 21034A   25342.74405889  .00000155  00000+0  26373-4 0  9994", "line2": "2 48268  97.8951  55.2426 0001321  96.8660 263.2703 14.81674889249458"}}, "geometry": {"type": "Point", "coordinates": [-108.24446160986616, 63.31326761264338]}}, {"type": "Feature", "properties": {"norad_id": 49070, "name": "PLEIADES NEO 4", "group": "resource", "lat": -63.363847707613516, "lon": 71.78758315334007, "alt_km": 632.1049375236598, "timestamp": "2025-12-09T05:43:20.385616+00:00", "meta": {"OBJECT_NAME": "PLEIADES NEO 4", "OBJECT_ID": "2021-073E", "EPOCH": "2025-12-08T20:17:17.876256", "MEAN_MOTION": 14.81675316, "ECCENTRICITY": 0.0001382, "INCLINATION": 97.8951, "RA_OF_ASC_NODE": 55.3382, "ARG_OF_PERICENTER": 89.6388, "MEAN_ANOMALY": 270.4983, "EPHEMERIS_TYPE": 0, "CLASSIFICATION_TYPE": "U", "NORAD_CAT_ID": 49070, "ELEMENT_SET_NO": 999, "REV_AT_EPOCH": 23318, "BSTAR": 0.00011977, "MEAN_MOTION_DOT": 8.91e-06, "MEAN_MOTION_DDOT": 0}, "tle": {"line1": "1 49070U 21073E   25342.84534579  .00000891  00000+0  11977-3 0  9999", "line2": "2 49070  97.8951  55.3382 0001382  89.6388 270.4983 14.81675316233185"}}, "geometry": {"type": "Point", "coordinates": [71.78758315334007, -63.363847707613516]}}, {"type": "Feature", "properties": {"norad_id": 49260, "name": "LANDSAT 9", "group": "resource", "lat": -78.10911728125909, "lon": -171.88596161792597, "alt_km": 710.5752808852858, "timestamp": "2025-12-09T05:43:20.385626+00:00", "meta": {"OBJECT_NAME": "LANDSAT 9", "OBJECT_ID": "2021-088A", "EPOCH": "2025-12-08T18:38:17.407104", "MEAN_MOTION": 14.57124879, "ECCENTRICITY": 0.0001115, "INCLINATION": 98.2099, "RA_OF_ASC_NODE": 50.9451, "ARG_OF_PERICENTER": 94.391, "MEAN_ANOMALY": 265.7416, "EPHEMERIS_TYPE": 0, "CLASSIFICATION_TYPE": "U", "NORAD_CAT_ID": 49260, "ELEMENT_SET_NO": 999, "REV_AT_EPOCH": 22327, "BSTAR": 0.00021494, "MEAN_MOTION_DOT": 9.24e-06, "MEAN_MOTION_DDOT": 0}, "tle": {"line1": "1 49260U 21088A   25342.77659036  .00000924  00000+0  21494-3 0  9996", "line2": "2 49260  98.2099  50.9451 0001115  94.3910 265.7416 14.57124879223273"}}, "geometry": {"type": "Point", "coordinates": [-171.88596161792597, -78.10911728125909]}}]}